OBJECT_NAME,OBJECT_ID,EPOCH,MEAN_MOTION,ECCENTRICITY,INCLINATION,RA_OF_ASC_NODE,ARG_OF_PERICENTER,MEAN_ANOMALY,EPHEMERIS_TYPE,CLASSIFICATION_TYPE,NORAD_CAT_ID,ELEMENT_SET_NO,REV_AT_EPOCH,BSTAR,MEAN_MOTION_DOT,MEAN_MOTION_DDOT
ELEKTRO-L 3,2019-095A,2026-07-16T03:46:38.668800,1.00271012,.00011179,0.3293,82.1275,21.3938,323.1155,0,U,44903,999,2399,0,-.107E-5,0
SHIJIAN-20 (SJ-20),2019-097A,2026-07-15T20:34:14.729088,1.00269465,.0015371,4.9898,74.7110,57.5331,154.7946,0,U,44910,999,2398,0,.123E-5,0
TJS-5,2020-002A,2026-07-16T02:13:38.789184,1.00270391,.0007705,0.0665,75.6437,339.6457,19.5478,0,U,44978,999,2399,0,-.353E-5,0
GSAT-30,2020-005A,2026-07-15T08:37:45.717024,1.00270719,.00032563,0.0481,91.8619,4.1984,49.5758,0,U,45026,999,2379,0,-.174E-5,0
EUTELSAT KONNECT,2020-005B,2026-07-16T06:30:48.069216,1.00268554,.00018383,0.0682,93.4572,148.9489,156.5962,0,U,45027,999,2462,0,.38E-6,0
JCSAT-17,2020-013A,2026-07-16T07:07:29.550720,1.00271973,.00030973,5.3923,357.1453,127.0649,52.8061,0,U,45245,999,2352,0,-.323E-5,0
GEO-KOMPSAT-2B,2020-013B,2026-07-14T15:44:17.583648,1.00270127,.00007152,0.0120,280.5606,316.5940,59.6839,0,U,45246,999,2355,0,-.352E-5,0
BEIDOU-3 G2,2020-017A,2026-07-16T03:26:10.560192,1.00268904,.00019405,2.9215,47.7426,61.9257,315.8648,0,U,45344,999,2355,0,-.151E-5,0
AEHF-6 (USA 298),2020-022B,2026-07-16T07:07:52.014720,1.00270891,.00420243,2.4856,301.5342,15.4053,221.9223,0,U,45465,999,2330,0,-.307E-5,0
BEIDOU-3 G3,2020-040A,2026-07-16T07:00:07.757280,1.00275953,.00022156,2.5166,67.4780,307.7814,134.3773,0,U,45807,999,2236,0,-.365E-5,0
APSTAR-6D,2020-045A,2026-07-15T17:25:42.600864,1.00286156,.00023384,0.0459,91.5440,17.1161,220.3305,0,U,45863,999,2214,0,-.326E-5,0
KOREASAT 116,2020-048A,2026-07-16T07:01:45.101568,1.00267921,.00009757,0.0263,297.9832,208.0736,9.6658,0,U,45920,999,2193,0,-.372E-5,0
EXPRESS 103,2020-053A,2026-07-16T03:30:40.129056,1.00271627,.00005865,0.0317,270.4823,182.9361,349.7251,0,U,45985,999,2193,0,-.291E-5,0
EXPRESS 80,2020-053B,2026-07-14T23:08:42.376704,1.00273684,.00019272,0.0235,45.2408,179.4739,135.2697,0,U,45986,999,2191,0,0,0
BSAT-4B,2020-056A,2026-07-16T07:00:00.268992,1.00271625,.00042988,0.0410,147.2337,341.6891,20.0258,0,U,46112,999,2168,0,-.361E-5,0
MEV-2,2020-056B,2026-07-16T06:28:25.796064,1.00273028,.00003602,0.0559,254.5645,323.0101,172.6331,0,U,46113,999,8089,0,-.21E-6,0
GALAXY 30 (G-30),2020-056C,2026-07-15T23:02:28.714848,1.00272066,.00020097,0.0128,68.4269,47.3472,38.6367,0,U,46114,999,2158,0,.26E-6,0
GAOFEN-13 01,2020-071A,2026-07-16T07:02:15.053856,1.00265107,.00452105,0.4713,86.1097,120.6189,311.1174,0,U,46610,999,2121,0,-.373E-5,0
TIANTONG-1 2,2020-082A,2026-07-15T17:23:05.352000,1.00273351,.00012067,0.7575,331.7910,125.3235,222.1544,0,U,46916,999,2093,0,-.365E-5,0
LUCAS (JDRS-1),2020-089A,2026-07-16T02:27:21.593664,1.00269969,.0001616,0.0732,268.5831,178.3958,334.5973,0,U,47202,999,2070,0,-.246E-5,0
SXM-7,2020-096A,2026-07-16T02:39:05.327712,1.00270266,.00035283,0.0264,97.1091,25.9654,125.4849,0,U,47240,999,773,0,-.216E-5,0
CMS-01,2020-099A,2026-07-16T03:46:38.668800,1.00270779,.00034483,0.0774,90.7914,175.8257,167.0243,0,U,47256,999,2048,0,-.175E-5,0
TURKSAT 5A,2021-001A,2026-07-14T22:06:08.283744,1.00271052,.0000214,0.0186,72.0805,188.2412,34.9010,0,U,47306,999,2024,0,.145E-5,0
TIANTONG-1 3,2021-003A,2026-07-16T03:26:40.511616,1.00270033,.0003,1.7351,341.1091,142.9984,303.0661,0,U,47321,999,2025,0,-.163E-5,0
TJS-6,2021-010A,2026-07-16T05:36:36.342144,1.00272873,.00030511,0.1778,261.6212,241.5801,53.4856,0,U,47613,999,2009,0,.32E-6,0
SBIRS GEO-5 (USA 315),2021-042A,2026-07-16T06:55:30.700128,1.00270703,.00014314,5.0673,329.3461,151.6723,10.7830,0,U,48618,999,1906,0,-.275E-5,0
FENGYUN 4B,2021-047A,2026-07-16T06:58:30.412992,1.00278478,.00069148,0.2231,79.9313,272.4264,150.9036,0,U,48808,999,1886,0,-.341E-5,0
SXM-8,2021-049A,2026-07-16T07:20:05.286336,1.00270312,.0005533,0.0176,47.8700,344.0571,287.0805,0,U,48838,999,1887,0,-.216E-5,0
TIANLIAN 1-05,2021-063A,2026-07-16T04:50:48.232896,1.00272534,.00010212,1.6668,80.4528,89.5691,213.5633,0,U,49011,999,1836,0,.97E-6,0
STAR ONE D2,2021-069A,2026-07-15T13:01:56.173728,1.00267571,.00025829,0.0117,29.9249,103.5107,285.3561,0,U,49055,999,1822,0,0,0
EUTELSAT QUANTUM,2021-069B,2026-07-16T04:59:39.884064,1.00271770,.00020456,0.0089,7.4530,101.6671,307.5159,0,U,49056,999,1821,0,.115E-5,0
ZHONGXING-2E,2021-071A,2026-07-16T06:56:30.604704,1.00267618,.0001278,0.0190,244.4030,260.1521,351.7740,0,U,49062,999,1833,0,0,0
