ELEKTRO-L 3             
1 44903U 19095A   26197.15739200 -.00000107  00000+0  00000+0 0  9993
2 44903   0.3293  82.1275 0001117  21.3938 323.1155  1.00271012 23997
SHIJIAN-20 (SJ-20)      
1 44910U 19097A   26196.85711492  .00000123  00000+0  00000+0 0  9999
2 44910   4.9898  74.7110 0015371  57.5331 154.7946  1.00269465 23980
TJS-5                   
1 44978U 20002A   26197.09281006 -.00000353  00000+0  00000+0 0  9997
2 44978   0.0665  75.6437 0007705 339.6457  19.5478  1.00270391 23999
GSAT-30                 
1 45026U 20005A   26196.35955691 -.00000174  00000+0  00000+0 0  9992
2 45026   0.0481  91.8619 0003256   4.1984  49.5758  1.00270719 23794
EUTELSAT KONNECT        
1 45027U 20005B   26197.27138969  .00000038  00000+0  00000+0 0  9994
2 45027   0.0682  93.4572 0001838 148.9489 156.5962  1.00268554 24628
JCSAT-17                
1 45245U 20013A   26197.29686980 -.00000323  00000+0  00000+0 0  9996
2 45245   5.3923 357.1453 0003097 127.0649  52.8061  1.00271973 23524
GEO-KOMPSAT-2B          
1 45246U 20013B   26195.65575907 -.00000352  00000+0  00000+0 0  9993
2 45246   0.0120 280.5606 0000715 316.5940  59.6839  1.00270127 23559
BEIDOU-3 G2             
1 45344U 20017A   26197.14317778 -.00000151  00000+0  00000+0 0  9999
2 45344   2.9215  47.7426 0001940  61.9257 315.8648  1.00268904 23555
AEHF-6 (USA 298)        
1 45465U 20022B   26197.29712980 -.00000307  00000+0  00000+0 0  9992
2 45465   2.4856 301.5342 0042024  15.4053 221.9223  1.00270891 23306
BEIDOU-3 G3             
1 45807U 20040A   26197.29175645 -.00000365  00000+0  00000+0 0  9997
2 45807   2.5166  67.4780 0002215 307.7814 134.3773  1.00275953 22361
APSTAR-6D               
1 45863U 20045A   26196.72618751 -.00000326  00000+0  00000+0 0  9998
2 45863   0.0459  91.5440 0002338  17.1161 220.3305  1.00286156 22145
KOREASAT 116            
1 45920U 20048A   26197.29288312 -.00000372  00000+0  00000+0 0  9995
2 45920   0.0263 297.9832 0000975 208.0736   9.6658  1.00267921 21937
EXPRESS 103             
1 45985U 20053A   26197.14629779 -.00000291  00000+0  00000+0 0  9992
2 45985   0.0317 270.4823 0000586 182.9361 349.7251  1.00271627 21931
EXPRESS 80              
1 45986U 20053B   26195.96437936  .00000000  00000+0  00000+0 0  9990
2 45986   0.0235  45.2408 0001927 179.4739 135.2697  1.00273684 21913
BSAT-4B                 
1 46112U 20056A   26197.29166978 -.00000361  00000+0  00000+0 0  9999
2 46112   0.0410 147.2337 0004298 341.6891  20.0258  1.00271625 21681
MEV-2                   
1 46113U 20056B   26197.26974301 -.00000021  00000+0  00000+0 0  9997
2 46113   0.0559 254.5645 0000360 323.0101 172.6331  1.00273028 80897
GALAXY 30 (G-30)        
1 46114U 20056C   26196.96005457  .00000026  00000+0  00000+0 0  9995
2 46114   0.0128  68.4269 0002009  47.3472  38.6367  1.00272066 21585
GAOFEN-13 01            
1 46610U 20071A   26197.29322979 -.00000373  00000+0  00000+0 0  9997
2 46610   0.4713  86.1097 0045210 120.6189 311.1174  1.00265107 21210
TIANTONG-1 2            
1 46916U 20082A   26196.72436750 -.00000365  00000+0  00000+0 0  9999
2 46916   0.7575 331.7910 0001206 125.3235 222.1544  1.00273351 20932
LUCAS (JDRS-1)          
1 47202U 20089A   26197.10233326 -.00000246  00000+0  00000+0 0  9990
2 47202   0.0732 268.5831 0001616 178.3958 334.5973  1.00269969 20702
SXM-7                   
1 47240U 20096A   26197.11047833 -.00000216  00000+0  00000+0 0  9994
2 47240   0.0264  97.1091 0003528  25.9654 125.4849  1.00270266  7731
CMS-01                  
1 47256U 20099A   26197.15739200 -.00000175  00000+0  00000+0 0  9998
2 47256   0.0774  90.7914 0003448 175.8257 167.0243  1.00270779 20488
TURKSAT 5A              
1 47306U 21001A   26195.92092921  .00000145  00000+0  00000+0 0  9999
2 47306   0.0186  72.0805 0000214 188.2412  34.9010  1.00271052 20245
TIANTONG-1 3            
1 47321U 21003A   26197.14352444 -.00000163  00000+0  00000+0 0  9994
2 47321   1.7351 341.1091 0003000 142.9984 303.0661  1.00270033 20259
TJS-6                   
1 47613U 21010A   26197.23375396  .00000032  00000+0  00000+0 0  9991
2 47613   0.1778 261.6212 0003051 241.5801  53.4856  1.00272873 20098
SBIRS GEO-5 (USA 315)   
1 48618U 21042A   26197.28854977 -.00000275  00000+0  00000+0 0  9994
2 48618   5.0673 329.3461 0001431 151.6723  10.7830  1.00270703 19067
FENGYUN 4B              
1 48808U 21047A   26197.29062978 -.00000341  00000+0  00000+0 0  9997
2 48808   0.2231  79.9313 0006914 272.4264 150.9036  1.00278478 18861
SXM-8                   
1 48838U 21049A   26197.30561674 -.00000216  00000+0  00000+0 0  9992
2 48838   0.0176  47.8700 0005533 344.0571 287.0805  1.00270312 18873
TIANLIAN 1-05           
1 49011U 21063A   26197.20194714  .00000097  00000+0  00000+0 0  9994
2 49011   1.6668  80.4528 0001021  89.5691 213.5633  1.00272534 18368
STAR ONE D2             
1 49055U 21069A   26196.54301127  .00000000  00000+0  00000+0 0  9996
2 49055   0.0117  29.9249 0002582 103.5107 285.3561  1.00267571 18225
EUTELSAT QUANTUM        
1 49056U 21069B   26197.20810051  .00000115  00000+0  00000+0 0  9999
2 49056   0.0089   7.4530 0002045 101.6671 307.5159  1.00271770 18212
ZHONGXING-2E            
1 49062U 21071A   26197.28924311  .00000000  00000+0  00000+0 0  9995
2 49062   0.0190 244.4030 0001278 260.1521 351.7740  1.00267618 18338
